[{"OBJECT_NAME":"OBJECT F","OBJECT_ID":"2024-092F","EPOCH":"2026-03-09T21:54:46.147104","MEAN_MOTION":15.3361444,"ECCENTRICITY":0.00086458,"INCLINATION":97.6418,"RA_OF_ASC_NODE":198.4543,"ARG_OF_PERICENTER":142.6506,"MEAN_ANOMALY":217.5339,"EPHEMERIS_TYPE":0,"CLASSIFICATION_TYPE":"U","NORAD_CAT_ID":59778,"ELEMENT_SET_NO":999,"REV_AT_EPOCH":10053,"BSTAR":0.0007914277,"MEAN_MOTION_DOT":0.00025723,"MEAN_MOTION_DDOT":0},{"OBJECT_NAME":"STARLINK-34816","OBJECT_ID":"2025-195K","EPOCH":"2026-03-09T17:15:45.880992","MEAN_MOTION":15.30189195,"ECCENTRICITY":0.00013731,"INCLINATION":53.1594,"RA_OF_ASC_NODE":258.3708,"ARG_OF_PERICENTER":34.8226,"MEAN_ANOMALY":325.2865,"EPHEMERIS_TYPE":0,"CLASSIFICATION_TYPE":"U","NORAD_CAT_ID":65467,"ELEMENT_SET_NO":999,"REV_AT_EPOCH":2999,"BSTAR":0.00051660617,"MEAN_MOTION_DOT":0.00014967,"MEAN_MOTION_DDOT":0}]
